OBJECT_NAME,OBJECT_ID,EPOCH,MEAN_MOTION,ECCENTRICITY,INCLINATION,RA_OF_ASC_NODE,ARG_OF_PERICENTER,MEAN_ANOMALY,EPHEMERIS_TYPE,CLASSIFICATION_TYPE,NORAD_CAT_ID,ELEMENT_SET_NO,REV_AT_EPOCH,BSTAR,MEAN_MOTION_DOT,MEAN_MOTION_DDOT
GALAXY 37 (G-37),2023-112A,2026-07-07T01:10:02.483040,1.00272229,.0001859,0.0187,34.5053,79.1357,61.8936,0,U,57493,999,1074,0,.63E-6,0
LUDI TANCE-4 01A,2023-120A,2026-07-07T00:28:58.920960,1.00265129,.0001647,15.0918,193.4829,25.1906,162.9772,0,U,57624,999,1074,0,-.154E-5,0
TJS-10,2023-169A,2026-07-02T18:00:47.329920,1.00269643,.0004215,2.5821,80.3140,104.6482,98.4495,0,U,58204,999,969,0,-.239E-5,0
ZHONGXING-6E,2023-172A,2026-07-07T02:19:04.850688,1.00265960,.0002209,0.0157,36.5712,72.5609,326.2117,0,U,58253,999,985,0,0,0
YAOGAN-41,2023-197A,2026-07-07T00:38:42.988416,1.00270532,.0014358,3.0941,313.4273,197.4539,267.0092,0,U,58582,999,952,0,-.346E-5,0
OVZON-3,2024-003A,2026-07-07T02:03:13.870080,1.00268744,.0000206,0.0055,159.9308,177.3223,38.2990,0,U,58698,999,764,0,.67E-6,0
INSAT-3DS,2024-033A,2026-07-07T02:09:35.758944,1.00272583,.0001132,0.0813,95.6917,19.9367,283.8998,0,U,58990,999,4726,0,-.141E-5,0
MERAH PUTIH 2,2024-035A,2026-07-07T03:57:38.522880,1.00268468,.0000985,0.0202,41.1540,78.8802,337.4715,0,U,58995,999,879,0,0,0
TJS-11,2024-037A,2026-07-06T22:52:56.324352,1.00266232,.0002979,4.1742,327.3084,133.4599,279.9657,0,U,59020,999,878,0,-.348E-5,0
HULIANWAN GAOGUI-01 (HG-01),2024-040A,2026-07-07T00:13:07.940352,1.00274439,.0002379,0.0730,330.4828,76.3906,275.0610,0,U,59069,999,752,0,.171E-5,0
EUTELSAT 36D,2024-059A,2026-07-06T20:05:46.822272,1.00271747,.0000264,0.0209,41.6099,173.6304,46.8711,0,U,59346,999,834,0,0,0
PAKSAT-MM1,2024-104A,2026-07-06T17:23:50.112384,1.00266945,.0002264,0.0390,182.9642,274.6834,126.2036,0,U,59915,999,772,0,.169E-5,0
ASTRA 1P (SES-24),2024-115A,2026-07-07T00:09:00.833760,1.00252500,.0001715,0.0595,334.6096,269.2406,62.5899,0,U,60086,999,739,0,.133E-5,0
GOES 19,2024-119A,2026-07-07T03:07:23.816928,1.00271959,.0000445,0.0367,227.9200,314.2171,74.6214,0,U,60133,999,716,0,-.233E-5,0
ZHONGXING-3A,2024-122A,2026-07-07T02:15:12.722400,1.00267329,.0001792,0.0330,137.1260,13.2911,270.0057,0,U,60179,999,750,0,-.298E-5,0
TURKSAT 6A,2024-127A,2026-07-07T03:42:38.461248,1.00272390,.0002774,0.0433,192.7518,324.9283,225.1023,0,U,60233,999,721,0,.161E-5,0
HULIANWAN GAOGUI-02 (HG-02),2024-135A,2026-07-06T21:21:51.277248,1.00266706,.0006718,0.0453,354.0269,15.3677,28.9466,0,U,60327,999,769,0,-.16E-5,0
ZHONGXING-4A,2024-151A,2026-07-07T03:27:38.522304,1.00272088,.0000181,1.2657,270.5714,247.0225,297.6626,0,U,60606,999,695,0,-.346E-5,0
HULIANWAN GAOGUI-03 (HG-03),2024-181A,2026-07-06T20:16:17.171616,1.00266913,.000121,0.0491,355.4231,102.4175,53.9080,0,U,61503,999,702,0,-.226E-5,0
DSN-3 (KIRAMEKI-3),2024-198A,2026-07-07T04:08:38.650848,1.00269895,.0000954,0.0325,267.4745,233.4541,350.4315,0,U,61733,999,612,0,-.235E-5,0
KOREASAT 6A,2024-206A,2026-07-07T00:36:35.690112,1.00272339,.0000829,0.0367,216.3752,229.6519,324.1334,0,U,61910,999,603,0,-.347E-5,0
OPTUS-X (ADS-01),2024-212A,2026-07-07T02:30:41.238144,1.00271165,.0002388,0.0176,345.4773,161.4663,332.2152,0,U,62006,999,596,0,-.128E-5,0
GSAT-N2 (GSAT-20),2024-214A,2026-07-07T03:48:13.935168,1.00272934,.0001908,0.0383,97.7736,344.5838,327.7974,0,U,62028,999,609,0,-.5E-7,0
SXM-9,2024-234A,2026-07-07T03:04:31.594080,1.00271012,.0004882,0.0195,325.1838,353.3066,287.5975,0,U,62259,999,577,0,-.19E-5,0
TJS-12,2024-246A,2026-07-07T04:10:37.549344,1.00271494,.0001965,0.6296,301.0818,101.7969,91.4862,0,U,62374,999,576,0,-.215E-5,0
NUVIEW ALPHA,2024-252B,2026-07-07T03:20:41.063424,1.00272329,.0000996,0.0435,24.9190,71.4539,155.7994,0,U,62455,999,402,0,-.2E-5,0
AGILA,2024-252C,2026-07-06T21:21:36.299808,1.00271276,.000116,0.0562,127.6645,12.5615,257.1912,0,U,62456,999,535,0,-.167E-5,0
NUVIEW BRAVO,2024-252D,2026-07-07T03:20:41.057376,1.00271852,.0001759,0.0678,165.6210,346.8358,99.7194,0,U,62457,999,399,0,-.2E-5,0
THURAYA-4,2025-001A,2026-07-07T03:42:38.461248,1.00272756,.0000038,0.0159,64.4321,187.9219,132.7279,0,U,62483,999,437,0,.154E-5,0
SHIJIAN-25 (SJ-25),2025-002A,2026-07-02T18:21:01.463328,1.00272141,.005163,5.1479,61.0664,174.7980,87.5189,0,U,62485,999,551,0,-.341E-5,0
TJS-14,2025-017A,2026-07-07T01:51:29.995200,1.00272884,.0001588,0.7401,296.9908,291.0841,103.2328,0,U,62804,999,547,0,.131E-5,0
SPAINSAT NG I,2025-021A,2026-07-07T00:11:53.059200,1.00274142,.0000275,0.0168,17.2038,139.4212,160.3226,0,U,62852,999,418,0,.166E-5,0
