GALAXY 37 (G-37)        
1 57493U 23112A   26188.04863985  .00000063  00000+0  00000+0 0  9992
2 57493   0.0187  34.5053 0001859  79.1357  61.8936  1.00272229 10741
LUDI TANCE-4 01A        
1 57624U 23120A   26188.02012640 -.00000154  00000+0  00000+0 0  9991
2 57624  15.0918 193.4829 0001647  25.1906 162.9772  1.00265129 10749
TJS-10                  
1 58204U 23169A   26183.75054780 -.00000239  00000+0  00000+0 0  9999
2 58204   2.5821  80.3140 0004215 104.6482  98.4495  1.00269643  9696
ZHONGXING-6E            
1 58253U 23172A   26188.09658392  .00000000  00000+0  00000+0 0  9993
2 58253   0.0157  36.5712 0002209  72.5609 326.2117  1.00265960  9857
YAOGAN-41               
1 58582U 23197A   26188.02688644 -.00000346  00000+0  00000+0 0  9995
2 58582   3.0941 313.4273 0014358 197.4539 267.0092  1.00270532  9521
OVZON-3                 
1 58698U 24003A   26188.08557720  .00000067  00000+0  00000+0 0  9995
2 58698   0.0055 159.9308 0000206 177.3223  38.2990  1.00268744  7646
INSAT-3DS               
1 58990U 24033A   26188.08999721 -.00000141  00000+0  00000+0 0  9998
2 58990   0.0813  95.6917 0001132  19.9367 283.8998  1.00272583 47268
MERAH PUTIH 2           
1 58995U 24035A   26188.16502920  .00000000  00000+0  00000+0 0  9998
2 58995   0.0202  41.1540 0000985  78.8802 337.4715  1.00268468  8791
TJS-11                  
1 59020U 24037A   26187.95342968 -.00000348  00000+0  00000+0 0  9996
2 59020   4.1742 327.3084 0002979 133.4599 279.9657  1.00266232  8784
HULIANWAN GAOGUI-01 (H*)
1 59069U 24040A   26188.00911968  .00000171  00000+0  00000+0 0  9995
2 59069   0.0730 330.4828 0002379  76.3906 275.0610  1.00274439  7526
EUTELSAT 36D            
1 59346U 24059A   26187.83734748  .00000000  00000+0  00000+0 0  9993
2 59346   0.0209  41.6099 0000264 173.6304  46.8711  1.00271747  8346
PAKSAT-MM1              
1 59915U 24104A   26187.72488556  .00000169  00000+0  00000+0 0  9993
2 59915   0.0390 182.9642 0002264 274.6834 126.2036  1.00266945  7722
ASTRA 1P (SES-24)       
1 60086U 24115A   26188.00625965  .00000133  00000+0  00000+0 0  9996
2 60086   0.0595 334.6096 0001715 269.2406  62.5899  1.00252500  7398
GOES 19                 
1 60133U 24119A   26188.13013677 -.00000233  00000+0  00000+0 0  9990
2 60133   0.0367 227.9200 0000445 314.2171  74.6214  1.00271959  7167
ZHONGXING-3A            
1 60179U 24122A   26188.09389725 -.00000298  00000+0  00000+0 0  9990
2 60179   0.0330 137.1260 0001792  13.2911 270.0057  1.00267329  7500
TURKSAT 6A              
1 60233U 24127A   26188.15461182  .00000161  00000+0  00000+0 0  9999
2 60233   0.0433 192.7518 0002774 324.9283 225.1023  1.00272390  7219
HULIANWAN GAOGUI-02 (H*)
1 60327U 24135A   26187.89017682 -.00000160  00000+0  00000+0 0  9994
2 60327   0.0453 354.0269 0006718  15.3677  28.9466  1.00266706  7697
ZHONGXING-4A            
1 60606U 24151A   26188.14419586 -.00000346  00000+0  00000+0 0  9996
2 60606   1.2657 270.5714 0000181 247.0225 297.6626  1.00272088  6955
HULIANWAN GAOGUI-03 (H*)
1 61503U 24181A   26187.84464319 -.00000226  00000+0  00000+0 0  9993
2 61503   0.0491 355.4231 0001210 102.4175  53.9080  1.00266913  7020
DSN-3 (KIRAMEKI-3)      
1 61733U 24198A   26188.17266957 -.00000235  00000+0  00000+0 0  9991
2 61733   0.0325 267.4745 0000954 233.4541 350.4315  1.00269895  6127
KOREASAT 6A             
1 61910U 24206A   26188.02541308 -.00000347  00000+0  00000+0 0  9992
2 61910   0.0367 216.3752 0000829 229.6519 324.1334  1.00272339  6030
OPTUS-X (ADS-01)        
1 62006U 24212A   26188.10464396 -.00000128  00000+0  00000+0 0  9993
2 62006   0.0176 345.4773 0002388 161.4663 332.2152  1.00271165  5962
GSAT-N2 (GSAT-20)       
1 62028U 24214A   26188.15849462 -.00000005  00000+0  00000+0 0  9999
2 62028   0.0383  97.7736 0001908 344.5838 327.7974  1.00272934  6098
SXM-9                   
1 62259U 24234A   26188.12814345 -.00000190  00000+0  00000+0 0  9991
2 62259   0.0195 325.1838 0004882 353.3066 287.5975  1.00271012  5775
TJS-12                  
1 62374U 24246A   26188.17404571 -.00000215  00000+0  00000+0 0  9991
2 62374   0.6296 301.0818 0001965 101.7969  91.4862  1.00271494  5768
NUVIEW ALPHA            
1 62455U 24252B   26188.13936416 -.00000200  00000+0  00000+0 0  9996
2 62455   0.0435  24.9190 0000996  71.4539 155.7994  1.00272329  4026
AGILA                   
1 62456U 24252C   26187.89000347 -.00000167  00000+0  00000+0 0  9996
2 62456   0.0562 127.6645 0001160  12.5615 257.1912  1.00271276  5353
NUVIEW BRAVO            
1 62457U 24252D   26188.13936409 -.00000200  00000+0  00000+0 0  9990
2 62457   0.0678 165.6210 0001759 346.8358  99.7194  1.00271852  3993
THURAYA-4               
1 62483U 25001A   26188.15461182  .00000154  00000+0  00000+0 0  9992
2 62483   0.0159  64.4321 0000038 187.9219 132.7279  1.00272756  4373
SHIJIAN-25 (SJ-25)      
1 62485U 25002A   26183.76460027 -.00000341  00000+0  00000+0 0  9993
2 62485   5.1479  61.0664 0051630 174.7980  87.5189  1.00272141  5514
TJS-14                  
1 62804U 25017A   26188.07743050  .00000131  00000+0  00000+0 0  9999
2 62804   0.7401 296.9908 0001588 291.0841 103.2328  1.00272884  5471
SPAINSAT NG I           
1 62852U 25021A   26188.00825300  .00000166  00000+0  00000+0 0  9997
2 62852   0.0168  17.2038 0000275 139.4212 160.3226  1.00274142  4181
